{
    "links": {
        "self": "http://www.neowsapp.com/rest/v1/neo/54049767?api_key=iIulBulltgU6a56xZRHN4H3l9WmuAYTsLGpBGhQ2"
    },
    "id": "54049767",
    "neo_reference_id": "54049767",
    "name": "(2020 OF4)",
    "designation": "2020 OF4",
    "nasa_jpl_url": "http://ssd.jpl.nasa.gov/sbdb.cgi?sstr=54049767",
    "absolute_magnitude_h": 22.688,
    "estimated_diameter": {
        "kilometers": {
            "estimated_diameter_min": 0.0770823553,
            "estimated_diameter_max": 0.1723613864
        },
        "meters": {
            "estimated_diameter_min": 77.0823553495,
            "estimated_diameter_max": 172.3613864272
        },
        "miles": {
            "estimated_diameter_min": 0.0478967402,
            "estimated_diameter_max": 0.107100367
        },
        "feet": {
            "estimated_diameter_min": 252.8948747247,
            "estimated_diameter_max": 565.4901310458
        }
    },
    "is_potentially_hazardous_asteroid": false,
    "close_approach_data": [
        {
            "close_approach_date": "1951-08-03",
            "close_approach_date_full": "1951-Aug-03 02:06",
            "epoch_date_close_approach": -581118840000,
            "relative_velocity": {
                "kilometers_per_second": "11.6319939146",
                "kilometers_per_hour": "41875.1780925971",
                "miles_per_hour": "26019.6071875918"
            },
            "miss_distance": {
                "astronomical": "0.2338955379",
                "lunar": "90.9853642431",
                "kilometers": "34990274.272344273",
                "miles": "21741948.2452980474"
            },
            "orbiting_body": "Earth"
        },
        {
            "close_approach_date": "1951-10-19",
            "close_approach_date_full": "1951-Oct-19 15:04",
            "epoch_date_close_approach": -574419360000,
            "relative_velocity": {
                "kilometers_per_second": "13.2016906239",
                "kilometers_per_hour": "47526.0862461674",
                "miles_per_hour": "29530.8617566811"
            },
            "miss_distance": {
                "astronomical": "0.1261506912",
                "lunar": "49.0726188768",
                "kilometers": "18871874.702547744",
                "miles": "11726439.1779531072"
            },
            "orbiting_body": "Venus"
        },
        {
            "close_approach_date": "2020-07-18",
            "close_approach_date_full": "2020-Jul-18 04:21",
            "epoch_date_close_approach": 1595046060000,
            "relative_velocity": {
                "kilometers_per_second": "9.0754785194",
                "kilometers_per_hour": "32671.7226696908",
                "miles_per_hour": "20300.9378999531"
            },
            "miss_distance": {
                "astronomical": "0.3400932614",
                "lunar": "132.2962786846",
                "kilometers": "50877227.506793218",
                "miles": "31613643.2286056884"
            },
            "orbiting_body": "Earth"
        },
        {
            "close_approach_date": "2020-10-05",
            "close_approach_date_full": "2020-Oct-05 23:10",
            "epoch_date_close_approach": 1601939400000,
            "relative_velocity": {
                "kilometers_per_second": "11.9130204669",
                "kilometers_per_hour": "42886.8736809955",
                "miles_per_hour": "26648.2354825052"
            },
            "miss_distance": {
                "astronomical": "0.3007438038",
                "lunar": "116.9893396782",
                "kilometers": "44990632.464177906",
                "miles": "27955882.6817348628"
            },
            "orbiting_body": "Earth"
        },
        {
            "close_approach_date": "2155-02-22",
            "close_approach_date_full": "2155-Feb-22 13:13",
            "epoch_date_close_approach": 5842588380000,
            "relative_velocity": {
                "kilometers_per_second": "24.3188204071",
                "kilometers_per_hour": "87547.7534654898",
                "miles_per_hour": "54398.7693685984"
            },
            "miss_distance": {
                "astronomical": "0.4749410328",
                "lunar": "184.7520617592",
                "kilometers": "71050166.882480136",
                "miles": "44148526.5063964368"
            },
            "orbiting_body": "Earth"
        }
    ],
    "orbital_data": {
        "orbit_id": "1",
        "orbit_determination_date": "2020-07-26 03:42:12",
        "first_observation_date": "2020-07-23",
        "last_observation_date": "2020-07-26",
        "data_arc_in_days": 3,
        "observations_used": 13,
        "orbit_uncertainty": "9",
        "minimum_orbit_intersection": ".196675",
        "jupiter_tisserand_invariant": "5.215",
        "epoch_osculation": "2459054.5",
        "eccentricity": ".3905528298395004",
        "semi_major_axis": "1.192721434833629",
        "inclination": "14.7359594357147",
        "ascending_node_longitude": "251.4420327947848",
        "orbital_period": "475.7808557951537",
        "perihelion_distance": ".7269007032491257",
        "perihelion_argument": "157.0434265810948",
        "aphelion_distance": "1.658542166418132",
        "perihelion_time": "2459149.061904468244",
        "mean_anomaly": "288.4496524105109",
        "mean_motion": ".7566508732226022",
        "equinox": "J2000",
        "orbit_class": {
            "orbit_class_type": "APO",
            "orbit_class_description": "Near-Earth asteroid orbits which cross the Earth’s orbit similar to that of 1862 Apollo",
            "orbit_class_range": "a (semi-major axis) > 1.0 AU; q (perihelion) < 1.017 AU"
        }
    },
    "is_sentry_object": false
}